#cP2017 12 10  0  0  0.00000000      96 ORBIT IGS14 HLM  IGS
## 1979      0.00000000   900.00000000 58097 0.0000000000000
+   32   G01G02G03G04G05G06G07G08G09G10G11G12G13G14G15G16G17
+        G18G19G20G21G22G23G24G25G26G27G28G29G30G31G32  0  0
+          0  0  0  0  0  0  0  0  0  0  0  0  0  0  0  0  0
+          0  0  0  0  0  0  0  0  0  0  0  0  0  0  0  0  0
+          0  0  0  0  0  0  0  0  0  0  0  0  0  0  0  0  0
++         2  2  2  0  2  2  2  2  2  2  2  2  2  2  2  2  2
++         2  2  2  2  2  2  2  2  1  2  2  2  2  2  2  0  0
++         0  0  0  0  0  0  0  0  0  0  0  0  0  0  0  0  0
++         0  0  0  0  0  0  0  0  0  0  0  0  0  0  0  0  0
++         0  0  0  0  0  0  0  0  0  0  0  0  0  0  0  0  0
%c G  cc GPS ccc cccc cccc cccc cccc ccccc ccccc ccccc ccccc
%c cc cc ccc ccc cccc cccc cccc cccc ccccc ccccc ccccc ccccc
%f  1.2500000  1.025000000  0.00000000000  0.000000000000000
%f  0.0000000  0.000000000  0.00000000000  0.000000000000000
%i    0    0    0    0      0      0      0      0         0
%i    0    0    0    0      0      0      0      0         0
/* RAPID ORBIT COMBINATION FROM WEIGHTED AVERAGE OF:        
/* cod emr esa gfz jpl ngs sio usn whu                      
/* REFERENCED TO IGS TIME (IGST) AND TO WEIGHTED MEAN POLE: 
/* PCV:IGS14_1977 OL/AL:FES2004  NONE     Y  ORB:CMB CLK:CMB
*  2017 12 10  3 45  0.00000000
PG01  10528.235145 -20817.004291 -12566.872617    -15.783507  5  6  4  94       
PG02 -21297.587241  13120.601234  -7937.584693    259.397102  7  8  5 114       
PG03   1597.825813 -15398.531051 -21605.765111    -29.471286  7  5  6 124       
PG04  25328.631392   8398.255566    995.298336 999999.999999
PG05 -21288.286269   4855.830845  15159.400055    -20.232823  6  7  6 119       
PG06 -20131.996269   2270.299650 -17160.384770    412.762991  3  9  7 107       
PG07  -4462.805262 -15638.401732  21119.023712    268.099881  6  5  3  53       
PG08   7254.830328 -19562.220640  16424.500857    -83.556039  3  3  4  97       
PG09  -8258.446986 -24949.751112   3781.038956    481.429658  3  7  6  68       
PG10  23981.161701  10845.734809   4122.683843    126.674319  6  4  4 103       
PG11   8113.422686 -25131.354899  -3973.829603   -729.984754  6  7  4  74       
PG12  -5370.347297  13682.496405 -22289.272454    361.096583  7  8  5 111       
PG13 -12487.731402  12508.488300  19712.439565    -94.644393  6  6  4 103       
PG14  15320.228920   5305.664348 -20791.520731    -90.266464  7  5  4  87       
PG15  -5259.013200  21178.125522  14672.874819   -357.373977  7  8  3 110       
PG16  20962.385587  -2767.776595  16193.768024     35.619883  4  6  4 110       
PG17 -13700.843428 -15101.087976 -16721.647324   -139.155116  5  6  5 111       
PG18  16607.295000  15668.778358  14303.634742    633.373309  5  4  3  86       
PG19 -15028.797361  -6309.157580 -21204.677867   -470.822326  4  7  5  96       
PG20  -4818.995257  15159.214627  21118.180221    495.143950  6  6  3 120       
PG21   7232.653966  14864.613906  21577.264872   -454.087183  5  7  4 107       
PG22  10024.049760 -13290.508054 -20463.377420   -217.162339  8  7  6  92       
PG23   -597.276419 -25382.505089  -6746.759998   -218.940293  8  8  7 108       
PG24 -12226.801220  21423.208473  -9575.416146    -43.262319  7  7  6 110       
PG25   8927.467176  16537.770202 -19016.670807   -503.231517  5  5  3 111       
PG26  25584.316856   3028.780723   6701.325901   -331.043920  2  5  3  77       
PG27  13350.362281  -7475.815731  21624.700501    354.798668  1  5  6  84       
PG28 -20970.880292 -14571.879521   7882.111506    669.679410  2  7  4  79       
PG29   3559.046100  26324.671382   -479.732364    527.297641  3  8  8  89       
PG30 -13366.240127  -8872.634657  21191.305190    121.934623  5  5  4 103       
PG31  21028.313180  -3077.109872 -16126.567250    156.538482  2  7  6 107       
PG32  15401.196005  12606.931943 -17595.318625   -528.954508  6  5  4  42       
*  2017 12 10  4  0  0.00000000
PG01  11608.729279 -21545.680631 -10095.602591    -15.785768  5  6  4  95       
PG02 -20733.564006  12094.281045 -10506.436045    259.387964  7  8  5 113       
PG03   3978.717413 -14713.110641 -21771.554605    -29.465845  8  5  6 120       
PG04  25250.075342   8559.931683  -1882.021358 999999.999999
PG05 -22799.725544   4223.342198  13033.512783    -20.231760  6  7  6 104       
PG06 -18738.288033    749.648173 -18791.942068    412.763951  3  9  7 106       
PG07  -2678.702888 -17143.810226  20184.732976    268.095101  5  5  3  21       
PG08   7885.533225 -17687.573239  18182.314085    -83.556462  2  3  4  97       
PG09  -8058.130287 -25285.054764    957.607663    481.433483  2  7  6  80       
PG10  23315.402872  10900.727566   6876.466694    126.680464  6  3  4 105       
PG11   8575.663557 -25200.220404  -1265.027735   -729.986455  6  6  4  92       
PG12  -7713.059991  12818.715463 -22095.996290    361.095094  7  8  5 115       
PG13 -12856.072654  10198.623210  20769.931500    -94.644455  6  6  4  80       
PG14  15621.077788   7665.290892 -19836.845604    -90.267099  7  5  4  87       
PG15  -6079.969047  19507.977188  16561.583966   -357.373812  7  7  3 118       
PG16  22544.154836  -2047.675610  14090.502478     35.619282  3  6  4 106       
PG17 -13914.309490 -16946.451988 -14714.120248   -139.152670  6  6  5  73       
PG18  14942.036334  15503.479609  16253.332134    633.373295  5  4  4  59       
PG19 -15280.048358  -8607.196810 -20159.318111   -470.820431  4  7  5  77       
PG20  -7211.753678  14673.484413  20776.131758    495.144196  6  7  3 120       
PG21   5608.378014  16457.262251  20861.138307   -454.083283  4  7  4 111       
PG22  12289.993886 -12641.694399 -19634.119105   -217.174132  8  7  6  79       
PG23    -50.379483 -24523.521764  -9381.605743   -218.940083  7  8  6  62       
PG24 -13098.604924  21891.493293  -6957.769684    -43.263012  7  8  6 117       
PG25   6785.612816  15989.116156 -20316.682076   -503.237112  5  5  4 100       
PG26  26103.192852   3430.391509   3946.112321   -331.031014  1  5  4  80       
PG27  13982.996399  -5054.058292  21943.700515    354.801280  1  6  6  68       
PG28 -20010.353401 -14364.747158  10531.726869    669.682222  2  7  3  61       
PG29   3332.861825  26143.712026  -3367.125126    527.293039  3  9  8  99       
PG30 -11525.236460 -10483.813389  21521.186705    121.932129  6  5  4  86       
PG31  19670.601933  -1682.798173 -17902.658179    156.536211  2  7  6 103       
PG32  15705.338293  14502.093099 -15780.708634   -528.956336  6  5  3  49       
*  2017 12 10  4 15  0.00000000
PG01  12451.620201 -22118.581805  -7448.910371    -15.788028  5  6  4  89       
PG02 -20037.829995  10820.175162 -12886.933448    259.379208  6  8  5 107       
PG03   6390.166505 -14152.949811 -21563.415233    -29.460333  7  5  5 118       
PG04  24869.278579   8643.879522  -4727.572361 999999.999999
PG05 -24092.730970   3720.877052  10684.297075    -20.230623  5  7  6  90       
PG06 -17314.623430   -965.877525 -20099.703151    412.764832  4  9  6 106       
PG07  -1058.454677 -18653.249863  18905.375566    268.090103  6  6  3  70       
PG08   8669.684895 -15677.377299  19627.371540    -83.557980  1  3  5  77       
PG09  -7778.183833 -25324.729186  -1882.318338    481.437298  2  7  6 100       
PG10  22356.883347  10923.216588   9512.961661    126.686596  6  3  5  97       
PG11   8936.973481 -25001.702726   1465.280815   -729.987578  6  6  5  97       
PG12 -10061.866153  12100.654322 -21527.787850    361.093394  7  9  6 111       
PG13 -13364.596939   7812.776002  21466.393861    -94.644762  6  6  4 103       
PG14  16015.164371   9877.575100 -18534.076198    -90.267333  6  4  4  93       
PG15  -7048.263711  17693.265731  18156.854708   -357.373593  7  7  3 109       
PG16  23922.573250  -1496.043571  11747.538836     35.619001  3  5  4  99       
PG17 -14169.481420 -18536.837352 -12448.905930   -139.149970  5  6  5  86       
PG18  13076.480030  15382.003744  17936.094324    633.373475  5  4  4  80       
PG19 -15630.805516 -10757.024077 -18773.252254   -470.818281  3  6  5  82       
PG20  -9565.607896  14306.536448  20071.624066    495.145417  7  8  4 123       
PG21   4127.824590  18059.461379  19809.132230   -454.079646  3  7  4 113       
PG22  14470.034371 -12117.400945 -18460.386492   -217.185937  8  8  6  83       
PG23    626.624322 -23413.112417 -11849.330497   -218.940453  7  7  5  89       
PG24 -13748.820563  22171.713513  -4218.788164    -43.263583  7  8  5 105       
PG25   4492.054906  15530.483755 -21273.676110   -503.242692  5  5  4  96       
PG26  26334.307530   3738.763053   1123.448123   -331.018101  1  5  4 100       
PG27  14750.054643  -2658.420463  21882.835294    354.803925  1  6  6  68       
PG28 -18770.307801 -14122.823809  13004.735243    669.685113  3  7  3  71       
PG29   3019.997034  25660.598339  -6196.625695    527.288585  3  9  8  83       
PG30  -9753.957772 -12197.063196  21481.119947    121.929556  6  5  5 101       
PG31  18258.706834    -85.022553 -19373.784203    156.534210  2  7  6 113       
PG32  16040.809281  16168.033206 -13694.843085   -528.958101  5  5  3  55       
EOF
